{
  "type": "FeatureCollection",
  "features": [
    {
      "type": "Feature",
      "properties": {
        "id": "detection-001",
        "type": "building",
        "confidence": 0.94
      },
      "geometry": {
        "type": "Point",
        "coordinates": [16.93, 45.28]
      }
    },
    {
      "type": "Feature",
      "properties": {
        "id": "detection-002",
        "type": "vehicle",
        "confidence": 0.87
      },
      "geometry": {
        "type": "Point",
        "coordinates": [16.95, 45.29]
      }
    },
    {
      "type": "Feature",
      "properties": {
        "id": "detection-003",
        "type": "building",
        "confidence": 0.91
      },
      "geometry": {
        "type": "Point",
        "coordinates": [17.02, 45.30]
      }
    },
    {
      "type": "Feature",
      "properties": {
        "id": "detection-004",
        "type": "vehicle",
        "confidence": 0.79
      },
      "geometry": {
        "type": "Point",
        "coordinates": [17.04, 45.32]
      }
    }
  ]
}